0 FENGYUN 1C DEB
1 29919U 99025HR  13281.87747198  .00000184  00000-0  18826-3 0  1264
2 29919 098.4974 069.2733 0139156 248.7035 243.0591 13.83499708340156
0 FENGYUN 1C DEB
1 29919U 99025HR  13282.95990051  .00000178  00000-0  18271-3 0  1270
2 29919 098.4974 070.2522 0139194 245.7310 234.2214 13.83500807340303
0 FENGYUN 1C DEB
1 29919U 99025HR  13284.11179216  .00000181  00000-0  18488-3 0  1287
2 29919 098.4976 071.2939 0139227 242.5738 211.3496 13.83501460340465
0 FENGYUN 1C DEB
1 29919U 99025HR  13285.40561152  .00000151  00000-0  16034-3 0  1297
2 29919 098.4978 072.4639 0139273 239.0255 175.3699 13.83502172340648
0 FENGYUN 1C DEB
1 29919U 99025HR  13286.86321512  .00000201  00000-0  20188-3 0  1305
2 29919 098.4982 073.7822 0139327 235.0292 235.1427 13.83502595340843
0 FENGYUN 1C DEB
1 29919U 99025HR  13288.08981529  .00000262  00000-0  25345-3 0  1319
2 29919 098.4984 074.8916 0139382 231.6705 224.3732 13.83503478341013
0 FENGYUN 1C DEB
1 29919U 99025HR  13289.17094567  .00000208  00000-0  20753-3 0  1326
2 29919 098.4987 075.8693 0139435 228.7140 209.0713 13.83504219341167
0 FENGYUN 1C DEB
1 29919U 99025HR  13290.18327096  .00000206  00000-0  20594-3 0  1337
2 29919 098.4989 076.7849 0139473 225.9442 211.0807 13.83504735341304
0 FENGYUN 1C DEB
1 29919U 99025HR  13291.40943389  .00000248  00000-0  24116-3 0  1343
2 29919 098.4990 077.8940 0139530 222.6017 198.1261 13.83505179341476
0 FENGYUN 1C DEB
1 29919U 99025HR  13292.42247512  .00000264  00000-0  25507-3 0  1355
2 29919 098.4991 078.8103 0139585 219.8308 203.7071 13.83505764341618
0 FENGYUN 1C DEB
1 29919U 99025HR  13294.02532288  .00000285  00000-0  27191-3 0  1365
2 29919 098.4991 080.2600 0139663 215.4521 266.8933 13.83506821341839
0 FENGYUN 1C DEB
1 29919U 99025HR  13295.38571343  .00000299  00000-0  28432-3 0  1375
2 29919 098.4991 081.4906 0139714 211.7329 202.4956 13.83508015342023
